CCSDS_OMM_VERS = 2.0
CREATION_DATE  = 
ORIGINATOR     = 

OBJECT_NAME    = YOTSUBA-KULOVER
OBJECT_ID      = 1998-067XN
CENTER_NAME    = EARTH
REF_FRAME      = TEME
TIME_SYSTEM    = UTC
MEAN_ELEMENT_THEORY = SGP/SGP4

EPOCH          = 2026-03-07T05:44:02.579136
MEAN_MOTION    = 15.79338346
ECCENTRICITY   = .00058179
INCLINATION    = 51.6206
RA_OF_ASC_NODE = 69.9935
ARG_OF_PERICENTER = 51.4976
MEAN_ANOMALY   = 308.6546

EPHEMERIS_TYPE = 0
CLASSIFICATION_TYPE = U
NORAD_CAT_ID   = 65941
ELEMENT_SET_NO = 999
REV_AT_EPOCH   = 2311
BSTAR          = .13993752E-2
MEAN_MOTION_DOT = .265557E-2
MEAN_MOTION_DDOT = 0

CCSDS_OMM_VERS = 2.0
CREATION_DATE  = 
ORIGINATOR     = 

OBJECT_NAME    = E-KAGAKU-1
OBJECT_ID      = 1998-067XQ
CENTER_NAME    = EARTH
REF_FRAME      = TEME
TIME_SYSTEM    = UTC
MEAN_ELEMENT_THEORY = SGP/SGP4

EPOCH          = 2026-03-07T05:49:42.716928
MEAN_MOTION    = 15.79025716
ECCENTRICITY   = .00061237
INCLINATION    = 51.6230
RA_OF_ASC_NODE = 70.0378
ARG_OF_PERICENTER = 57.4847
MEAN_ANOMALY   = 302.6745

EPHEMERIS_TYPE = 0
CLASSIFICATION_TYPE = U
NORAD_CAT_ID   = 65943
ELEMENT_SET_NO = 999
REV_AT_EPOCH   = 2311
BSTAR          = .13785385E-2
MEAN_MOTION_DOT = .257698E-2
MEAN_MOTION_DDOT = 0

CCSDS_OMM_VERS = 2.0
CREATION_DATE  = 
ORIGINATOR     = 

OBJECT_NAME    = HRC MONOBLOCK CAMERA
OBJECT_ID      = 1998-067XR
CENTER_NAME    = EARTH
REF_FRAME      = TEME
TIME_SYSTEM    = UTC
MEAN_ELEMENT_THEORY = SGP/SGP4

EPOCH          = 2026-03-07T06:27:45.550944
MEAN_MOTION    = 15.61885249
ECCENTRICITY   = .00035832
INCLINATION    = 51.6272
RA_OF_ASC_NODE = 77.7457
ARG_OF_PERICENTER = 81.1712
MEAN_ANOMALY   = 278.9687

EPHEMERIS_TYPE = 0
CLASSIFICATION_TYPE = U
NORAD_CAT_ID   = 66052
ELEMENT_SET_NO = 999
REV_AT_EPOCH   = 2201
BSTAR          = .77330333E-3
MEAN_MOTION_DOT = .68611E-3
MEAN_MOTION_DDOT = 0

CCSDS_OMM_VERS = 2.0
CREATION_DATE  = 
ORIGINATOR     = 

OBJECT_NAME    = HTV-X1
OBJECT_ID      = 2025-241A
CENTER_NAME    = EARTH
REF_FRAME      = TEME
TIME_SYSTEM    = UTC
MEAN_ELEMENT_THEORY = SGP/SGP4

EPOCH          = 2026-03-07T06:06:36.812736
MEAN_MOTION    = 15.48501510
ECCENTRICITY   = .00081427
INCLINATION    = 51.6318
RA_OF_ASC_NODE = 84.3952
ARG_OF_PERICENTER = 166.2106
MEAN_ANOMALY   = 193.9106

EPHEMERIS_TYPE = 0
CLASSIFICATION_TYPE = U
NORAD_CAT_ID   = 66174
ELEMENT_SET_NO = 999
REV_AT_EPOCH   = 55447
BSTAR          = .28420598E-3
MEAN_MOTION_DOT = .14982E-3
MEAN_MOTION_DDOT = 0

CCSDS_OMM_VERS = 2.0
CREATION_DATE  = 
ORIGINATOR     = 

OBJECT_NAME    = SZ-21 MODULE
OBJECT_ID      = 2025-246C
CENTER_NAME    = EARTH
REF_FRAME      = TEME
TIME_SYSTEM    = UTC
MEAN_ELEMENT_THEORY = SGP/SGP4

EPOCH          = 2026-03-06T12:11:03.500160
MEAN_MOTION    = 15.68252686
ECCENTRICITY   = .00014339
INCLINATION    = 41.4735
RA_OF_ASC_NODE = 222.9439
ARG_OF_PERICENTER = 292.6372
MEAN_ANOMALY   = 67.4317

EPHEMERIS_TYPE = 0
CLASSIFICATION_TYPE = U
NORAD_CAT_ID   = 66515
ELEMENT_SET_NO = 999
REV_AT_EPOCH   = 1757
BSTAR          = .36494457E-3
MEAN_MOTION_DOT = .4195E-3
MEAN_MOTION_DDOT = 0

CCSDS_OMM_VERS = 2.0
CREATION_DATE  = 
ORIGINATOR     = 

OBJECT_NAME    = SHENZHOU-22
OBJECT_ID      = 2025-272A
CENTER_NAME    = EARTH
REF_FRAME      = TEME
TIME_SYSTEM    = UTC
MEAN_ELEMENT_THEORY = SGP/SGP4

EPOCH          = 2026-03-07T03:44:19.313376
MEAN_MOTION    = 15.60515598
ECCENTRICITY   = .00069956
INCLINATION    = 41.4664
RA_OF_ASC_NODE = 223.5772
ARG_OF_PERICENTER = 257.5663
MEAN_ANOMALY   = 102.4393

EPHEMERIS_TYPE = 0
CLASSIFICATION_TYPE = U
NORAD_CAT_ID   = 66645
ELEMENT_SET_NO = 999
REV_AT_EPOCH   = 26752
BSTAR          = .36120059E-3
MEAN_MOTION_DOT = .30452E-3
MEAN_MOTION_DDOT = 0

CCSDS_OMM_VERS = 2.0
CREATION_DATE  = 
ORIGINATOR     = 

OBJECT_NAME    = SOYUZ-MS 28
OBJECT_ID      = 2025-275A
CENTER_NAME    = EARTH
REF_FRAME      = TEME
TIME_SYSTEM    = UTC
MEAN_ELEMENT_THEORY = SGP/SGP4

EPOCH          = 2026-03-07T06:06:36.812736
MEAN_MOTION    = 15.48501510
ECCENTRICITY   = .00081427
INCLINATION    = 51.6318
RA_OF_ASC_NODE = 84.3952
ARG_OF_PERICENTER = 166.2106
MEAN_ANOMALY   = 193.9106

EPHEMERIS_TYPE = 0
CLASSIFICATION_TYPE = U
NORAD_CAT_ID   = 66664
ELEMENT_SET_NO = 999
REV_AT_EPOCH   = 55452
BSTAR          = .28420598E-3
MEAN_MOTION_DOT = .14982E-3
MEAN_MOTION_DDOT = 0

CCSDS_OMM_VERS = 2.0
CREATION_DATE  = 
ORIGINATOR     = 

OBJECT_NAME    = DUPLEX
OBJECT_ID      = 1998-067XS
CENTER_NAME    = EARTH
REF_FRAME      = TEME
TIME_SYSTEM    = UTC
MEAN_ELEMENT_THEORY = SGP/SGP4

EPOCH          = 2026-03-07T06:34:54.013728
MEAN_MOTION    = 15.56027322
ECCENTRICITY   = .00022239
INCLINATION    = 51.6285
RA_OF_ASC_NODE = 81.5298
ARG_OF_PERICENTER = 101.9633
MEAN_ANOMALY   = 258.1608

EPHEMERIS_TYPE = 0
CLASSIFICATION_TYPE = U
NORAD_CAT_ID   = 66906
ELEMENT_SET_NO = 999
REV_AT_EPOCH   = 1475
BSTAR          = .5671647E-3
MEAN_MOTION_DOT = .39972E-3
MEAN_MOTION_DDOT = 0

CCSDS_OMM_VERS = 2.0
CREATION_DATE  = 
ORIGINATOR     = 

OBJECT_NAME    = ISS OBJECT XT
OBJECT_ID      = 1998-067XT
CENTER_NAME    = EARTH
REF_FRAME      = TEME
TIME_SYSTEM    = UTC
MEAN_ELEMENT_THEORY = SGP/SGP4

EPOCH          = 2026-03-07T06:57:04.093344
MEAN_MOTION    = 15.68379385
ECCENTRICITY   = .00046489
INCLINATION    = 51.6250
RA_OF_ASC_NODE = 77.8696
ARG_OF_PERICENTER = 63.6364
MEAN_ANOMALY   = 296.5109

EPHEMERIS_TYPE = 0
CLASSIFICATION_TYPE = U
NORAD_CAT_ID   = 66907
ELEMENT_SET_NO = 999
REV_AT_EPOCH   = 1480
BSTAR          = .16946979E-2
MEAN_MOTION_DOT = .198895E-2
MEAN_MOTION_DDOT = 0

CCSDS_OMM_VERS = 2.0
CREATION_DATE  = 
ORIGINATOR     = 

OBJECT_NAME    = ISS OBJECT XU
OBJECT_ID      = 1998-067XU
CENTER_NAME    = EARTH
REF_FRAME      = TEME
TIME_SYSTEM    = UTC
MEAN_ELEMENT_THEORY = SGP/SGP4

EPOCH          = 2026-03-07T06:54:43.339968
MEAN_MOTION    = 15.68489622
ECCENTRICITY   = .00048138
INCLINATION    = 51.6244
RA_OF_ASC_NODE = 77.8556
ARG_OF_PERICENTER = 65.5331
MEAN_ANOMALY   = 294.6167

EPHEMERIS_TYPE = 0
CLASSIFICATION_TYPE = U
NORAD_CAT_ID   = 66908
ELEMENT_SET_NO = 999
REV_AT_EPOCH   = 1480
BSTAR          = .17261911E-2
MEAN_MOTION_DOT = .203645E-2
MEAN_MOTION_DDOT = 0

CCSDS_OMM_VERS = 2.0
CREATION_DATE  = 
ORIGINATOR     = 

OBJECT_NAME    = SILVERSAT
OBJECT_ID      = 1998-067XV
CENTER_NAME    = EARTH
REF_FRAME      = TEME
TIME_SYSTEM    = UTC
MEAN_ELEMENT_THEORY = SGP/SGP4

EPOCH          = 2026-03-07T07:02:35.366496
MEAN_MOTION    = 15.71158496
ECCENTRICITY   = .00054532
INCLINATION    = 51.6247
RA_OF_ASC_NODE = 77.1411
ARG_OF_PERICENTER = 60.9415
MEAN_ANOMALY   = 299.2128

EPHEMERIS_TYPE = 0
CLASSIFICATION_TYPE = U
NORAD_CAT_ID   = 66909
ELEMENT_SET_NO = 999
REV_AT_EPOCH   = 1481
BSTAR          = .19116402E-2
MEAN_MOTION_DOT = .253597E-2
MEAN_MOTION_DDOT = 0

CCSDS_OMM_VERS = 2.0
CREATION_DATE  = 
ORIGINATOR     = 

OBJECT_NAME    = ISS OBJECT XW
OBJECT_ID      = 1998-067XW
CENTER_NAME    = EARTH
REF_FRAME      = TEME
TIME_SYSTEM    = UTC
MEAN_ELEMENT_THEORY = SGP/SGP4

EPOCH          = 2026-03-07T06:48:18.692352
MEAN_MOTION    = 15.67806072
ECCENTRICITY   = .00050172
INCLINATION    = 51.6239
RA_OF_ASC_NODE = 77.8210
ARG_OF_PERICENTER = 72.1474
MEAN_ANOMALY   = 288.0069

EPHEMERIS_TYPE = 0
CLASSIFICATION_TYPE = U
NORAD_CAT_ID   = 66910
ELEMENT_SET_NO = 999
REV_AT_EPOCH   = 1480
BSTAR          = .15884808E-2
MEAN_MOTION_DOT = .181703E-2
MEAN_MOTION_DDOT = 0

